{
"type": "FeatureCollection",
"generator": "overpass-ide",
"copyright": "The data included in this document is from www.openstreetmap.org. The data is made available under ODbL.",
"timestamp": "2023-06-06T03:38:20Z",
"name": "rumahsakit",
"features": [
{ "type": "Feature", "id": "relation/8527745", "properties": { "@id": "relation/8527745", "access:roof": "no", "addr:full": "Jalan Ganjuran", "amenity": "hospital", "building": "hospital", "building:condition": "good", "building:floor": "ceramics", "building:levels": "1", "building:material": "brick", "building:roof": "tile", "building:structure": "confined_masonry", "capacity:persons": ">500", "healthcare": "hospital", "healthcare:speciality": "general", "name": "Rumah Sakit Santa Elisabeth", "operator:type": "private", "phone": "(0274) 367502", "source": "survey", "type": "multipolygon", "@geometry": "center" }, "geometry": { "type": "Point", "coordinates": [ 110.3186623, -7.9256637 ] } },
{ "type": "Feature", "id": "way/120385630", "properties": { "@id": "way/120385630", "amenity": "hospital", "building:levels": "5", "building:roof": "concrete", "building:structure": "plastered", "building:use": "medical", "building:walls": "brick", "healthcare": "hospital", "name": "Rumah Sakit Gigi Dan Mulut Dr.Soedomo", "phone": "(0274) 2920606", "@geometry": "center" }, "geometry": { "type": "Point", "coordinates": [ 110.373988, -7.7705587 ] } },
{ "type": "Feature", "id": "way/120718008", "properties": { "@id": "way/120718008", "access:roof": "no", "addr:full": "Jalan Jayaningprangan", "amenity": "hospital", "building": "hospital", "building:condition": "good", "building:floor": "ceramics", "building:levels": "1", "building:material": "brick", "building:roof": "tile", "building:structure": "confined_masonry", "building:use": "medical", "building:walls": "brick", "capacity:persons": "50-100", "name": "Rumah Sakit Khusus Puri Nirmala", "operator:type": "private", "phone": "(0274) 515255", "source": "survey", "@geometry": "center" }, "geometry": { "type": "Point", "coordinates": [ 110.3769107, -7.8008879 ] } },
{ "type": "Feature", "id": "way/120774929", "properties": { "@id": "way/120774929", "addr:city": "Yogyakarta", "addr:full": "Jalan Wirosaban No.1", "addr:housenumber": "01", "addr:postcode": "55162", "addr:street": "Jalan Pangeran Wirosobo", "amenity": "hospital", "description": "Rumah Sakit Wirosaban", "name": "RS Jogja", "operator:type": "government", "phone": "0274-371195", "source": "survey", "@geometry": "center" }, "geometry": { "type": "Point", "coordinates": [ 110.3782841, -7.8258561 ] } },
{ "type": "Feature", "id": "way/120838420", "properties": { "@id": "way/120838420", "access:roof": "no", "addr:full": "Jl. Kyai Haji Ali Maksum Krapyak", "amenity": "hospital", "building": "hospital", "building:condition": "good", "building:floor": "ceramics", "building:levels": "1", "building:material": "brick", "building:roof": "tile", "building:structure": "confined_masonry", "capacity:persons": "250-500", "name": "Rumah Sakit Umum Veteran Patmasuri", "operator:type": "private", "phone": "(0274) 372021", "source": "survey", "@geometry": "center" }, "geometry": { "type": "Point", "coordinates": [ 110.3599425, -7.8299971 ] } },
{ "type": "Feature", "id": "way/121642948", "properties": { "@id": "way/121642948", "addr:full": "Jalan K.H. Ahmad Dahlan No. 20", "amenity": "hospital", "healthcare": "hospital", "healthcare:speciality": "general", "name": "RS PKU Muhammadiyah Kota Yogyakarta", "phone": "(0274) 512653", "website": "https://rspkujogja.com/", "@geometry": "center" }, "geometry": { "type": "Point", "coordinates": [ 110.3624308, -7.8007195 ] } },
{ "type": "Feature", "id": "way/188171414", "properties": { "@id": "way/188171414", "amenity": "hospital", "building": "yes", "name": "RS THT Dr. Pomo", "@geometry": "center" }, "geometry": { "type": "Point", "coordinates": [ 110.3685714, -7.8082181 ] } },
{ "type": "Feature", "id": "way/198739428", "properties": { "@id": "way/198739428", "access:roof": "no", "addr:full": "Jl. Jogja - Solo", "amenity": "hospital", "capacity:persons": "250-500", "emergency": "yes", "healthcare": "hospital", "internet_access": "wlan", "internet_access:fee": "no", "internet_access:ssid": "Hotspot Panti Rini", "name": "RS Panti Rini", "operator:type": "private", "phone": "(0274) 496022", "source": "survey", "@geometry": "center" }, "geometry": { "type": "Point", "coordinates": [ 110.4665395, -7.7716651 ] } },
{ "type": "Feature", "id": "way/233729584", "properties": { "@id": "way/233729584", "addr:city": "Sleman", "addr:housename": "Rumah Sakit Akademik UGM", "addr:street": "Jalan Kabupaten", "amenity": "hospital", "building": "hospital", "building:levels": "6", "email": "humas.rsugm@ugm.ac.id", "emergency": "yes", "fax": "+62 274 4530606", "healthcare": "hospital", "name": "Rumah Sakit Akademik UGM", "phone": "+62 274 4530404", "website": "https://rsa.ugm.ac.id/", "@geometry": "center" }, "geometry": { "type": "Point", "coordinates": [ 110.3504099, -7.7431999 ] } },
{ "type": "Feature", "id": "way/236813795", "properties": { "@id": "way/236813795", "amenity": "hospital", "building": "yes", "name": "Puskesmas Pengasih 1", "phone": "(0274) 774014", "@geometry": "center" }, "geometry": { "type": "Point", "coordinates": [ 110.1640678, -7.8313805 ] } },
{ "type": "Feature", "id": "way/253273884", "properties": { "@id": "way/253273884", "addr:city": "Yogyakarta", "addr:full": "Jalan Hayam Wuruk No. 6 Yogyakarta", "addr:street": "Jalan Hayam Wuruk", "amenity": "hospital", "healthcare": "hospital", "name": "Rumah Sakit Bethesda Lempuyangwangi", "opening_hours": "24 jam", "phone": "(0274) 512257", "source": "survey", "@geometry": "center" }, "geometry": { "type": "Point", "coordinates": [ 110.3730409, -7.796421 ] } },
{ "type": "Feature", "id": "way/261190301", "properties": { "id": "2239", "@id": "way/261190301", "amenity": "hospital", "building": "yes", "@geometry": "center" }, "geometry": { "type": "Point", "coordinates": [ 110.4608332, -7.5920502 ] } },
{ "type": "Feature", "id": "way/261194331", "properties": { "id": "1511", "@id": "way/261194331", "addr:full": "PAGER JURANG, KEPUH HARJO", "amenity": "hospital", "building": "yes", "level": "1", "name": "Puskesmas Pembantu Kepuharjo", "roof": "Tile", "structure": "Reinforced_mansory", "use": "hospital", "wall": "brick", "@geometry": "center" }, "geometry": { "type": "Point", "coordinates": [ 110.4520873, -7.6249827 ] } },
{ "type": "Feature", "id": "way/261200968", "properties": { "id": "15", "@id": "way/261200968", "addr:full": "Karangeneng, Umbulharjo", "amenity": "hospital", "building": "yes", "level": "1", "name": "Puskesmas Pembantu Desa Umbulharjo", "roof": "Tile", "structure": "Unreinforced_mansory", "use": "Residential", "wall": "brick", "@geometry": "center" }, "geometry": { "type": "Point", "coordinates": [ 110.4328587, -7.6257569 ] } },
{ "type": "Feature", "id": "way/270040187", "properties": { "@id": "way/270040187", "access:roof": "yes", "addr:city": "Yogyakarta", "addr:full": "Jalan Cik Di Tiro No 30", "addr:housenumber": "30", "addr:street": "Jalan Cik Di Tiro", "amenity": "hospital", "capacity:persons": ">500", "contact:facebook": "https://www.facebook.com/pantirapihhospital", "contact:instagram": "rspantirapihyogyakarta", "contact:youtube": "https://www.youtube.com/c/RSPantiRapih", "email": "admin@pantirapih.or.id", "emergency": "yes", "fax": "+62274564583", "healthcare": "hospital", "healthcare:speciality": "general", "name": "Rumah Sakit Panti Rapih", "opening_hours": "24 jam", "operator:type": "private", "phone": "+62274514014", "source": "survey", "website": "https://pantirapih.or.id/rspr/", "wikidata": "Q7131849", "wikipedia": "id:Rumah Sakit Panti Rapih", "@geometry": "center" }, "geometry": { "type": "Point", "coordinates": [ 110.3776312, -7.777175 ] } },
{ "type": "Feature", "id": "way/273660215", "properties": { "@id": "way/273660215", "access:roof": "no", "addr:full": "Jalan Jayaningprangan", "amenity": "hospital", "building": "hospital", "building:condition": "good", "building:floor": "ceramics", "building:levels": "1", "building:material": "brick", "building:roof": "tile", "building:structure": "confined_masonry", "building:use": "medical", "building:walls": "brick", "capacity:persons": "50-100", "height": "7.6", "name": "Rumah Sakit Khusus Puri Nirmala", "operator:type": "private", "source": "survey", "@geometry": "center" }, "geometry": { "type": "Point", "coordinates": [ 110.3772333, -7.8009235 ] } },
{ "type": "Feature", "id": "way/337523520", "properties": { "@id": "way/337523520", "amenity": "hospital", "building": "yes", "healthcare": "hospital", "name": "ICC RSUP Dr. Sardjito", "@geometry": "center" }, "geometry": { "type": "Point", "coordinates": [ 110.3714525, -7.7705569 ] } },
{ "type": "Feature", "id": "way/346069511", "properties": { "@id": "way/346069511", "amenity": "hospital", "building": "yes", "healthcare": "hospital", "name": "Gedung Pusat Jantung Terpadu", "@geometry": "center" }, "geometry": { "type": "Point", "coordinates": [ 110.3718446, -7.769702 ] } },
{ "type": "Feature", "id": "way/346069516", "properties": { "@id": "way/346069516", "amenity": "hospital", "building": "yes", "healthcare": "hospital", "name": "Paviliun Cendrawasih RS Sardjito", "@geometry": "center" }, "geometry": { "type": "Point", "coordinates": [ 110.3715045, -7.7693094 ] } },
{ "type": "Feature", "id": "way/349955138", "properties": { "@id": "way/349955138", "addr:city": "Kabupaten Sleman", "addr:full": "Jalan Wates KM 5.5, Ambarketawang, Sleman", "amenity": "hospital", "name": "Rumah Sakit PKU Muhammadiyah Gamping", "opening_hours": "24 jam", "operator:type": "community", "phone": "(0274) 6499704", "website": "https://pkugamping.com/", "@geometry": "center" }, "geometry": { "type": "Point", "coordinates": [ 110.3174774, -7.8005273 ] } },
{ "type": "Feature", "id": "way/362165308", "properties": { "@id": "way/362165308", "amenity": "hospital", "name": "Rumah Pengobatan Tradisional Dawasir", "opening_hours": "Mo-Fr 08:30-20:00; Sa,Su 08:00-15:00; PH off", "takeaway": "no", "@geometry": "center" }, "geometry": { "type": "Point", "coordinates": [ 110.4150163, -7.7004902 ] } },
{ "type": "Feature", "id": "way/362511092", "properties": { "@id": "way/362511092", "access:roof": "yes", "addr:full": "Jalan Selokan Mataram", "amenity": "hospital", "healthcare": "hospital", "name": "Rumah Sakit Hermina", "opening_hours": "24 jam", "operator:type": "private", "phone": "(0274) 2800808", "source": "survey", "@geometry": "center" }, "geometry": { "type": "Point", "coordinates": [ 110.4325755, -7.7700612 ] } },
{ "type": "Feature", "id": "way/363969384", "properties": { "@id": "way/363969384", "amenity": "hospital", "building": "yes", "name": "Sub Puskesmas Mlati 2", "opening_hours": "24 jam", "phone": "(0274) 865909", "@geometry": "center" }, "geometry": { "type": "Point", "coordinates": [ 110.3285958, -7.7487015 ] } },
{ "type": "Feature", "id": "way/364887978", "properties": { "@id": "way/364887978", "addr:full": "KRINGINAN", "amenity": "hospital", "building": "yes", "building:levels": "2", "building:roof": "tile", "building:structure": "plastered", "building:walls": "brick", "name": "RS PARU PARU", "@geometry": "center" }, "geometry": { "type": "Point", "coordinates": [ 110.4643853, -7.7732202 ] } },
{ "type": "Feature", "id": "way/364888110", "properties": { "@id": "way/364888110", "addr:full": "KRINGINAN", "amenity": "hospital", "building": "yes", "building:levels": "2", "building:roof": "tile", "building:structure": "plastered", "building:walls": "brick", "name": "RS PARU PARU", "@geometry": "center" }, "geometry": { "type": "Point", "coordinates": [ 110.464623, -7.7732181 ] } },
{ "type": "Feature", "id": "way/366465707", "properties": { "@id": "way/366465707", "access:roof": "yes", "addr:full": "Jalan Jendral Sudirman", "amenity": "hospital", "building": "hospital", "building:condition": "good", "building:floor": "ceramics", "building:levels": "3", "building:material": "concrete", "building:roof": "tile", "building:structure": "confined_masonry", "capacity:persons": ">500", "name": "RSU PKU Muhammadiyah Bantul", "opening_hours": "24 jam", "operator:type": "private", "phone": "(0274) 367437", "source": "survey", "@geometry": "center" }, "geometry": { "type": "Point", "coordinates": [ 110.3303439, -7.8869242 ] } },
{ "type": "Feature", "id": "way/374397543", "properties": { "@id": "way/374397543", "access:roof": "no", "addr:city": "Bantul", "addr:full": "Jalan Soragan No.14, Soragan, Ngestiharjo, Kasihan, Bantul, Daerah Istimewa Yogyakarta 55184", "addr:housenumber": "4", "addr:postcode": "55182", "addr:street": "Soragan", "amenity": "hospital", "building": "hospital", "building:condition": "good", "building:floor": "ceramics", "building:levels": "2", "building:material": "concrete", "building:roof": "tile", "building:structure": "confined_masonry", "capacity:persons": "50-100", "healthcare": "hospital", "name": "RS Khusus Ibu dan Anak Adinda", "opening_hours": "24 jam", "operator": "Private", "operator:type": "private", "phone": "(0274) 622988", "source": "survey", "@geometry": "center" }, "geometry": { "type": "Point", "coordinates": [ 110.3487547, -7.7855146 ] } },
{ "type": "Feature", "id": "way/377998703", "properties": { "@id": "way/377998703", "addr:city": "Kota Yogyakarta", "addr:full": "Jalan Jendral Sudirman No 70 Kotabaru", "addr:housenumber": "70", "addr:street": "Jalan Jenderal Sudirman", "amenity": "hospital", "healthcare": "hospital", "name": "Rumah Sakit Bethesda", "opening_hours": "24 jam", "operator:type": "private", "phone": "+62 274 586688", "source": "survey", "website": "https://bethesda.or.id/", "@geometry": "center" }, "geometry": { "type": "Point", "coordinates": [ 110.3773686, -7.7837196 ] } },
{ "type": "Feature", "id": "way/396468395", "properties": { "@id": "way/396468395", "access:roof": "yes", "addr:full": "Jalan Kolonel Sugiono No 98 Yogyakarta", "alt_name": "RS Pratama", "amenity": "hospital", "building": "hospital", "building:colour": "white", "building:condition": "good", "building:floor": "ceramics", "building:levels": "5", "building:levels:underground": "1", "building:material": "concrete", "building:roof": "tile", "building:structure": "confined_masonry", "capacity:persons": ">500", "height": "20", "max_level": "5", "name": "Rumah Sakit Pratama", "name:en": "Pratama Hospital", "opening_hours": "24 jam", "operator:type": "private", "phone": "(0274) 373249", "source": "survey", "@geometry": "center" }, "geometry": { "type": "Point", "coordinates": [ 110.3737144, -7.8158504 ] } },
{ "type": "Feature", "id": "way/447657872", "properties": { "@id": "way/447657872", "addr:city": "Srihardono", "addr:postcode": "55771", "addr:street": "Jalan Piring, Srihardono", "amenity": "hospital", "emergency": "no", "healthcare": "hospital", "name": "RS Terpadu Penyandang Disabilitas", "operator:type": "government", "phone": "+62 274 6464177", "@geometry": "center" }, "geometry": { "type": "Point", "coordinates": [ 110.3445442, -7.9584149 ] } },
{ "type": "Feature", "id": "way/458344310", "properties": { "@id": "way/458344310", "addr:full": "Jalan Panembahan Senopati", "amenity": "hospital", "healthcare": "hospital", "healthcare:speciality": "cardiology", "name": "Rumah Sakit Khusus Paru Respira", "opening_hours": "24 jam", "operator:type": "private", "phone": "0897-3177-779", "source": "survey", "@geometry": "center" }, "geometry": { "type": "Point", "coordinates": [ 110.3202573, -7.9056471 ] } },
{ "type": "Feature", "id": "way/477599497", "properties": { "@id": "way/477599497", "amenity": "hospital", "name": "Puskesmas Pengasih 2", "phone": "0823-2446-7785", "@geometry": "center" }, "geometry": { "type": "Point", "coordinates": [ 110.1751169, -7.8504222 ] } },
{ "type": "Feature", "id": "way/491025622", "properties": { "@id": "way/491025622", "access:roof": "no", "addr:full": "Jalan Solo KM 14 Yogyakarta", "amenity": "hospital", "building": "hospital", "building:condition": "good", "building:floor": "tekhel", "building:levels": "2", "building:material": "brick", "building:roof": "tile", "building:structure": "confined_masonry", "capacity:persons": ">500", "name": "Rumah Sakit Bhayangkara", "opening_hours": "24 jam", "operator:type": "government", "phone": "(0274) 498278", "source": "survey", "@geometry": "center" }, "geometry": { "type": "Point", "coordinates": [ 110.4717305, -7.7662099 ] } },
{ "type": "Feature", "id": "way/511889439", "properties": { "@id": "way/511889439", "amenity": "hospital", "healthcare": "hospital", "healthcare:speciality": "paediatrics;gynaecology", "name": "RSKIA Permata Bunda", "opening_hours": "24 jam", "phone": "(0274) 376092", "@geometry": "center" }, "geometry": { "type": "Point", "coordinates": [ 110.3997245, -7.8206723 ] } },
{ "type": "Feature", "id": "way/511889458", "properties": { "@id": "way/511889458", "access:roof": "no", "addr:full": "Jl. Kemasan No.30, Purbayan, Kotagede, Kota Yogyakarta, Daerah Istimewa Yogyakarta 55173", "amenity": "hospital", "building": "hospital", "building:condition": "good", "building:levels": "2", "building:material": "concrete", "building:roof": "tile", "building:structure": "confined_masonry", "capacity:persons": ">500", "healthcare": "hospital", "healthcare:speciality": "paediatrics;gynaecology;general", "name": "RSKIA PKU Muhammadiyah Kotagede", "opening_hours": "24 jam", "phone": "(0274) 371201", "@geometry": "center" }, "geometry": { "type": "Point", "coordinates": [ 110.4007525, -7.8229229 ] } },
{ "type": "Feature", "id": "way/514264630", "properties": { "@id": "way/514264630", "amenity": "hospital", "name": "Puskesmas Giripurwo", "@geometry": "center" }, "geometry": { "type": "Point", "coordinates": [ 110.4022236, -8.0322205 ] } },
{ "type": "Feature", "id": "way/530314270", "properties": { "@id": "way/530314270", "addr:city": "Wonosari", "addr:place": "Jalan Taman Bakti", "amenity": "hospital", "healthcare": "hospital", "name": "RSUD Wonosari", "opening_hours": "24 jam", "phone": "(0274) 391288", "@geometry": "center" }, "geometry": { "type": "Point", "coordinates": [ 110.6039156, -7.9619151 ] } },
{ "type": "Feature", "id": "way/530763479", "properties": { "@id": "way/530763479", "access:roof": "yes", "addr:full": "Jalan Babarsari Tb 16 no 18", "amenity": "hospital", "building": "hospital", "building:condition": "good", "building:levels": "3", "building:material": "brick", "building:roof": "tile", "building:structure": "confined_masonry", "capacity:persons": "250-500", "healthcare": "hospital", "name": "RSKIA Sadewa", "opening_hours": "24 jam", "phone": "(0274) 489118", "source": "survey", "@geometry": "center" }, "geometry": { "type": "Point", "coordinates": [ 110.4158089, -7.7711113 ] } },
{ "type": "Feature", "id": "way/533314778", "properties": { "@id": "way/533314778", "access:roof": "no", "addr:full": "jalan raya besi jangka no.10 ngaglik", "amenity": "hospital", "building": "hospital", "building:condition": "good", "building:floor": "ceramics", "building:levels": "2", "building:material": "concrete", "building:roof": "tile", "building:structure": "steel_frame", "capacity:persons": "100-250", "name": "RSU Gramedika", "opening_hours": "24 jam", "operator:type": "private", "phone": "(0274) 898501", "source": "survey", "@geometry": "center" }, "geometry": { "type": "Point", "coordinates": [ 110.4169859, -7.7014093 ] } },
{ "type": "Feature", "id": "way/533713529", "properties": { "@id": "way/533713529", "addr:full": "Jl Wonosari Km 8,5Gandu,SendangTirto, Berbah,Sleman", "amenity": "hospital", "name": "Rumah Sakit Dharma", "operator:type": "private", "phone": "(0274) 444 333", "source": "survey", "@geometry": "center" }, "geometry": { "type": "Point", "coordinates": [ 110.4299554, -7.8255062 ] } },
{ "type": "Feature", "id": "way/533746481", "properties": { "@id": "way/533746481", "addr:full": "DELEGAN, SUMBERHARJO", "amenity": "hospital", "building": "yes", "name": "RSUD PRAMBANAN", "opening_hours": "24 jam", "phone": "(0274) 4398357", "@geometry": "center" }, "geometry": { "type": "Point", "coordinates": [ 110.4832671, -7.8047113 ] } },
{ "type": "Feature", "id": "way/535953749", "properties": { "@id": "way/535953749", "access:roof": "yes", "addr:full": "Jl. Ring Road Selatan", "amenity": "hospital", "building": "hospital", "building:condition": "good", "building:levels": "2", "building:material": "brick", "building:roof": "concrete", "building:structure": "confined_masonry", "capacity:persons": "100-250", "name": "Rumah Sakit Khusus Bedah", "operator:type": "private", "phone": "(0274) 2872046", "source": "survey", "@geometry": "center" }, "geometry": { "type": "Point", "coordinates": [ 110.3604094, -7.8341552 ] } },
{ "type": "Feature", "id": "way/566004091", "properties": { "@id": "way/566004091", "amenity": "hospital", "healthcare": "hospital", "healthcare:speciality": "Umum", "name": "Klinik Laras Hati", "phone": "0851-0135-9333", "@geometry": "center" }, "geometry": { "type": "Point", "coordinates": [ 110.2615306, -7.9121311 ] } },
{ "type": "Feature", "id": "way/575262947", "properties": { "@id": "way/575262947", "addr:city": "Gulurejo", "addr:street": "Jalan Wonolopo", "amenity": "hospital", "emergency": "no", "healthcare": "hospital", "healthcare:speciality": "general", "name": "Puskesmas Pembantu Gulurejo", "operator": "Pemerintah", "source": "survey;aerial imagery", "tourism": "yes", "wheelchair": "no", "@geometry": "center" }, "geometry": { "type": "Point", "coordinates": [ 110.2558385, -7.9095746 ] } },
{ "type": "Feature", "id": "way/589707391", "properties": { "@id": "way/589707391", "alt_name": "rumah sakit murangan", "amenity": "hospital", "healthcare": "hospital", "name": "RSUD Sleman", "opening_hours": "24 jam", "operator": "pemkab sleman", "phone": "(0274) 868437", "@geometry": "center" }, "geometry": { "type": "Point", "coordinates": [ 110.3423403, -7.6875491 ] } },
{ "type": "Feature", "id": "way/591454189", "properties": { "@id": "way/591454189", "addr:full": "Jalan Wijaya Kusuma No.310, Sleman", "amenity": "hospital", "healthcare": "hospital", "name": "RSKB SINDUADI", "opening_hours": "24 jam", "operator:type": "private", "phone": "(0274) 624088", "source": "survey", "@geometry": "center" }, "geometry": { "type": "Point", "coordinates": [ 110.3633696, -7.7573539 ] } },
{ "type": "Feature", "id": "way/591475169", "properties": { "@id": "way/591475169", "addr:full": "Jalan Juadi No 19", "amenity": "hospital", "healthcare": "hospital", "name": "Rumah Sakit Dr Soetarto", "opening_hours": "24 jam", "operator:type": "government", "phone": "(0274) 2920000", "@geometry": "center" }, "geometry": { "type": "Point", "coordinates": [ 110.3769937, -7.7856307 ] } },
{ "type": "Feature", "id": "way/591845831", "properties": { "@id": "way/591845831", "amenity": "hospital", "healthcare": "hospital", "name": "Puskesmas Nanggulan", "phone": "(0274) 2820224", "@geometry": "center" }, "geometry": { "type": "Point", "coordinates": [ 110.209765, -7.7745558 ] } },
{ "type": "Feature", "id": "way/591934313", "properties": { "@id": "way/591934313", "addr:full": "Jalan Ring Road Utara", "addr:street": "Ring Road Utara", "amenity": "hospital", "healthcare": "hospital", "name": "Rumah Sakit JIH", "opening_hours": "24 jam", "operator:type": "private", "phone": "(0274) 4463535", "source": "survey", "@geometry": "center" }, "geometry": { "type": "Point", "coordinates": [ 110.4034681, -7.7578076 ] } },
{ "type": "Feature", "id": "way/591938608", "properties": { "@id": "way/591938608", "access:roof": "no", "addr:full": "Jalan Wiratama No. 4", "amenity": "hospital", "building": "hospital", "building:condition": "good", "building:floor": "ceramics", "building:levels": "3", "building:material": "brick", "building:roof": "tile", "building:structure": "confined_masonry", "capacity:persons": "250-500", "name": "Rumah Sakit Ludira Husada Tama", "opening_hours": "24 jam", "operator:type": "private", "phone": "(0274) 620333", "source": "survey", "@geometry": "center" }, "geometry": { "type": "Point", "coordinates": [ 110.352903, -7.7923811 ] } },
{ "type": "Feature", "id": "way/594852354", "properties": { "@id": "way/594852354", "addr:full": "Jl. Sidobali Muja Muju UH II/402 Telp. 0274-589090 Yogyakarta 55165", "amenity": "hospital", "building": "yes", "building:condition": "good", "building:levels": "1", "building:material": "brick", "building:roof": "tile", "building:structure": "confined_masonry", "capacity:persons": "<50", "name": "Rumah Sakit Khusus Bedah Soedirman", "phone": "0274 545455", "source": "survey", "@geometry": "center" }, "geometry": { "type": "Point", "coordinates": [ 110.3975316, -7.8006439 ] } },
{ "type": "Feature", "id": "way/594852413", "properties": { "@id": "way/594852413", "addr:full": "jalan golo no 33", "amenity": "hospital", "building": "hospital", "building:condition": "good", "building:levels": "1", "building:material": "brick", "building:roof": "tile", "building:structure": "confined_masonry", "capacity:persons": "100-250", "name": "Rumah Sakit Bhakti Ibu", "opening_hours": "24 jam", "phone": "(0274) 376793", "source": "survey", "@geometry": "center" }, "geometry": { "type": "Point", "coordinates": [ 110.3816394, -7.81485 ] } },
{ "type": "Feature", "id": "way/610149135", "properties": { "@id": "way/610149135", "access:roof": "yes", "addr:full": "Jalan Colombo", "amenity": "hospital", "building": "hospital", "building:condition": "good", "building:floor": "ceramics", "building:levels": "4", "building:material": "concrete", "building:roof": "concrete", "building:structure": "confined_masonry", "capacity:persons": "250-500", "name": "Rumah Sakit Khusus Bedah An-Nur", "opening_hours": "24 jam", "operator:type": "private", "phone": "0817-585-848", "source": "survey", "@geometry": "center" }, "geometry": { "type": "Point", "coordinates": [ 110.3868935, -7.7781222 ] } },
{ "type": "Feature", "id": "way/610371884", "properties": { "@id": "way/610371884", "amenity": "hospital", "building": "yes", "name": "RS THT Dr. Pomo", "@geometry": "center" }, "geometry": { "type": "Point", "coordinates": [ 110.3686369, -7.8082065 ] } },
{ "type": "Feature", "id": "way/610371885", "properties": { "@id": "way/610371885", "amenity": "hospital", "building": "yes", "name": "RS THT Dr. Pomo", "@geometry": "center" }, "geometry": { "type": "Point", "coordinates": [ 110.3685613, -7.8085315 ] } },
{ "type": "Feature", "id": "way/610371886", "properties": { "@id": "way/610371886", "amenity": "hospital", "building": "yes", "name": "RS THT Dr. Pomo", "@geometry": "center" }, "geometry": { "type": "Point", "coordinates": [ 110.3685245, -7.8084262 ] } },
{ "type": "Feature", "id": "way/610666540", "properties": { "@id": "way/610666540", "access:roof": "no", "addr:full": "jl patangpuluhan no.35", "amenity": "hospital", "building": "hospital", "building:condition": "good", "building:floor": "ceramics", "building:levels": "2", "building:material": "brick", "building:roof": "tile", "building:structure": "confined_masonry", "capacity:persons": ">500", "name": "RSKIA 45", "opening_hours": "24 jam", "operator:type": "private", "phone": "(0274) 376962", "source": "survey", "@geometry": "center" }, "geometry": { "type": "Point", "coordinates": [ 110.3460733, -7.8075214 ] } },
{ "type": "Feature", "id": "way/610993613", "properties": { "@id": "way/610993613", "amenity": "hospital", "healthcare": "hospital", "name": "Rumah Sakit Ibu dan Anak Fajar", "opening_hours": "24 jam", "phone": "0823-3251-0100", "@geometry": "center" }, "geometry": { "type": "Point", "coordinates": [ 110.3499098, -7.8085976 ] } },
{ "type": "Feature", "id": "way/613425525", "properties": { "@id": "way/613425525", "amenity": "hospital", "building": "yes", "healthcare": "hospital", "name": "RSKIA Rachmi", "opening_hours": "24 jam", "phone": "(0274) 376717", "@geometry": "center" }, "geometry": { "type": "Point", "coordinates": [ 110.3565178, -7.8036201 ] } },
{ "type": "Feature", "id": "way/613598097", "properties": { "@id": "way/613598097", "access:roof": "no", "addr:full": "Karangsari, Wedomartani, Ngemplak, Sleman", "amenity": "hospital", "building": "hospital", "building:condition": "good", "building:floor": "ceramics", "building:levels": "3", "building:material": "concrete", "building:roof": "tile", "building:structure": "confined_masonry", "capacity:persons": ">500", "name": "Rumah Sakit Universitas Ahmad Dahlan", "opening_hours": "24 jam", "operator:type": "private", "phone": "(0274) 4477068", "source": "survey", "@geometry": "center" }, "geometry": { "type": "Point", "coordinates": [ 110.4248621, -7.7471255 ] } },
{ "type": "Feature", "id": "way/614432401", "properties": { "@id": "way/614432401", "access:roof": "no", "addr:full": "Jalan Imogiri Timur KM. 11.5", "amenity": "hospital", "building": "hospital", "building:condition": "good", "building:floor": "ceramics", "building:levels": "3", "building:material": "brick", "building:roof": "tile", "building:structure": "confined_masonry", "capacity:persons": "250-500", "name": "Rumah Sakit Nur Hidayah", "opening_hours": "24 jam", "operator:type": "private", "phone": "(0274) 2810632", "source": "survey", "@geometry": "center" }, "geometry": { "type": "Point", "coordinates": [ 110.3879854, -7.8862197 ] } },
{ "type": "Feature", "id": "way/616082200", "properties": { "@id": "way/616082200", "access:roof": "yes", "addr:full": "Jalan Ipda Tut harsono No 53 jl Melati wetan", "amenity": "hospital", "name": "RS Happy Land", "opening_hours": "24 jam", "operator:type": "government", "phone": "(0274) 550060", "source": "survey", "website": "https://rshappyland.com/", "@geometry": "center" }, "geometry": { "type": "Point", "coordinates": [ 110.3921868, -7.7939635 ] } },
{ "type": "Feature", "id": "way/616211547", "properties": { "@id": "way/616211547", "addr:full": "Jl.Veteran No.184, Pandeyan, Umbulharjo", "amenity": "hospital", "healthcare": "hospital", "name": "RSI Hidayatullah", "opening_hours": "24 jam", "operator:type": "government", "phone": "(0274) 389194", "source": "survey", "toilets:wheelchair": "yes", "wheelchair": "yes", "@geometry": "center" }, "geometry": { "type": "Point", "coordinates": [ 110.3877007, -7.8150629 ] } },
{ "type": "Feature", "id": "way/616249114", "properties": { "@id": "way/616249114", "addr:city": "Bantul", "addr:full": "Jalan Dr. Wahidin Sudiro Husodo, Area Sawah, Trirenggo, Kec. Bantul, Bantul, Daerah Istimewa Yogyakarta 55714", "addr:postcode": "55714", "addr:street": "Jalan Dokter Wahidin Sudiro Husodo", "amenity": "hospital", "description": "Hasil pemetaan rumah sakit rujukan COVID19 di Provinsi DIY. -Indonesia Hospital Mapping Project-", "email": "rsudps@bantulkab.go.id", "emergency": "yes", "healthcare": "hospital", "name": "RSUD Panembahan Senopati", "opening_hours": "24 jam", "operator": "Pemerintah Kabupaten Bantul", "operator:type": "government", "phone": "+62 274 367386", "source": "survey", "website": "https://rsudps.bantulkab.go.id/", "@geometry": "center" }, "geometry": { "type": "Point", "coordinates": [ 110.3379658, -7.8924266 ] } },
{ "type": "Feature", "id": "way/616517916", "properties": { "@id": "way/616517916", "access:roof": "no", "addr:full": "Jalan Pemuda", "amenity": "hospital", "building": "hospital", "building:condition": "good", "building:floor": "ceramics", "building:levels": "2", "building:material": "brick", "building:roof": "tile", "building:structure": "confined_masonry", "capacity:persons": "100-250", "name": "RSKIA Ummi Khasanah", "opening_hours": "24 jam", "operator:type": "private", "phone": "(0274) 367638", "source": "survey", "@geometry": "center" }, "geometry": { "type": "Point", "coordinates": [ 110.3306252, -7.8786024 ] } },
{ "type": "Feature", "id": "way/616520162", "properties": { "@id": "way/616520162", "access:roof": "yes", "addr:city": "Sleman", "addr:full": "Jalan Kesehatan No. 1, Sinduadi, Mlati, Senolowo, Sinduadi, Mlati, Kabupaten Sleman, Daerah Istimewa Yogyakarta 55281", "amenity": "hospital", "healthcare": "hospital", "name": "RSUP Dr. Sardjito", "opening_hours": "24 jam", "operator:type": "government", "phone": " (0274) 631190", "source": "survey", "@geometry": "center" }, "geometry": { "type": "Point", "coordinates": [ 110.3728728, -7.7681923 ] } },
{ "type": "Feature", "id": "way/616862644", "properties": { "@id": "way/616862644", "access:roof": "no", "addr:full": "Jalan Parangtritis Km. 16, Patalan Jetis Bantul Yogyakarta", "amenity": "hospital", "building": "hospital", "building:condition": "good", "building:floor": "ceramics", "building:levels": "3", "building:material": "brick", "building:roof": "tile", "building:structure": "confined_masonry", "capacity:persons": "250-500", "name": "Rumah Sakit Umum Rachma Husada", "opening_hours": "24 jam", "phone": "(0274) 6460091", "source": "survey", "@geometry": "center" }, "geometry": { "type": "Point", "coordinates": [ 110.3459035, -7.9321319 ] } },
{ "type": "Feature", "id": "way/616883613", "properties": { "@id": "way/616883613", "addr:full": "Jalan Ringroad Barat No.118, Mlangi, Nogotirto, Gamping, Kabupaten Sleman, Daerah Istimewa Yogyakarta 55294", "amenity": "hospital", "name": "Rumah Sakit Umum Queen Latifa", "opening_hours": "24 jam", "operator:type": "private", "phone": "(0274) 581402", "source": "survey", "@geometry": "center" }, "geometry": { "type": "Point", "coordinates": [ 110.3370301, -7.7626259 ] } },
{ "type": "Feature", "id": "way/617106472", "properties": { "@id": "way/617106472", "addr:full": "Jalan Monjali No.106, Kutu Dukuh, Sinduadi, Mlati, Kabupaten Sleman, Daerah Istimewa Yogyakarta 55284", "amenity": "hospital", "healthcare": "hospital", "name": "RS Sakina Idaman", "opening_hours": "24 jam", "operator:type": "private", "phone": "(0274) 5018221", "source": "survey", "@geometry": "center" }, "geometry": { "type": "Point", "coordinates": [ 110.3678423, -7.7675837 ] } },
{ "type": "Feature", "id": "way/619125299", "properties": { "@id": "way/619125299", "access:roof": "no", "addr:full": "jalan pleret, banguntapan", "amenity": "hospital", "building": "hospital", "building:condition": "good", "building:floor": "tekhel", "building:levels": "2", "building:material": "brick", "building:roof": "tile", "building:structure": "confined_masonry", "capacity:persons": "250-500", "name": "Rumah Sakit Rajawali Citra", "opening_hours": "24 jam", "operator:type": "private", "phone": "0851-0048-2003", "source": "survey", "@geometry": "center" }, "geometry": { "type": "Point", "coordinates": [ 110.410236, -7.848608 ] } },
{ "type": "Feature", "id": "way/620278791", "properties": { "@id": "way/620278791", "access:roof": "yes", "addr:full": "Jalan Raya Tajem", "amenity": "hospital", "building": "hospital", "building:condition": "good", "building:floor": "ceramics", "building:levels": "4", "building:material": "concrete", "building:roof": "concrete", "building:structure": "confined_masonry", "capacity:persons": ">500", "name": "Rumah Sakit Medika Respati", "operator:type": "private", "source": "survey", "@geometry": "center" }, "geometry": { "type": "Point", "coordinates": [ 110.4337728, -7.7483432 ] } },
{ "type": "Feature", "id": "way/620520051", "properties": { "@id": "way/620520051", "addr:full": "jl palagan tentara pelajar", "amenity": "hospital", "name": "RS Puri Husada", "opening_hours": "24 jam", "operator:type": "private", "phone": "(0274) 867270", "source": "survey", "@geometry": "center" }, "geometry": { "type": "Point", "coordinates": [ 110.3864518, -7.7058103 ] } },
{ "type": "Feature", "id": "way/620520372", "properties": { "@id": "way/620520372", "access:roof": "no", "addr:full": "Klepu, Sendangmulyo, Minggir", "amenity": "hospital", "name": "RSU PANTI BAKTININGSIH", "opening_hours": "24 jam", "operator:type": "private", "phone": "(0274) 6497209", "source": "survey", "@geometry": "center" }, "geometry": { "type": "Point", "coordinates": [ 110.2423762, -7.7550695 ] } },
{ "type": "Feature", "id": "way/620526505", "properties": { "@id": "way/620526505", "addr:full": "jalan kaliurang km. 17", "amenity": "hospital", "capacity:persons": ">500", "name": "Rumah Sakit Jiwa Grhasia", "operator:type": "government", "phone": "(0274) 895143", "source": "survey", "@geometry": "center" }, "geometry": { "type": "Point", "coordinates": [ 110.4218117, -7.6619073 ] } },
{ "type": "Feature", "id": "way/620543767", "properties": { "@id": "way/620543767", "addr:full": "Jalan Kaliurang KM 17", "amenity": "hospital", "capacity:persons": ">500", "name": "RS Panti Nugroho", "opening_hours": "24 jam", "operator:type": "private", "phone": "(0274) 895186", "source": "survey", "@geometry": "center" }, "geometry": { "type": "Point", "coordinates": [ 110.417139, -7.6687433 ] } },
{ "type": "Feature", "id": "way/620578145", "properties": { "@id": "way/620578145", "addr:full": "Klaci I, Margoluwih, Seyegan, Sleman", "amenity": "hospital", "name": "Rumah Sakit At-Turots Al-Islamy", "opening_hours": "24 jam", "operator:type": "private", "phone": "(0274) 6496677", "source": "survey", "@geometry": "center" }, "geometry": { "type": "Point", "coordinates": [ 110.2939203, -7.7504498 ] } },
{ "type": "Feature", "id": "way/722721176", "properties": { "@id": "way/722721176", "amenity": "hospital", "healthcare": "hospital", "name": "RS Universitas Islam Indonesia", "opening_hours": "24 jam", "phone": "(0274) 2812999", "@geometry": "center" }, "geometry": { "type": "Point", "coordinates": [ 110.2960523, -7.909138 ] } },
{ "type": "Feature", "id": "way/778464130", "properties": { "@id": "way/778464130", "addr:city": "Yogyakarta", "addr:street": "Jalan Cik Di Tiro", "amenity": "hospital", "healthcare": "hospital", "healthcare:speciality": "ophthalmology", "name": "RS Mata Dr. Yap", "phone": "(0274) 562054", "@geometry": "center" }, "geometry": { "type": "Point", "coordinates": [ 110.3744425, -7.7805775 ] } },
{ "type": "Feature", "id": "way/783886543", "properties": { "@id": "way/783886543", "addr:city": "Bantul", "addr:full": "Jalan Janti Yogyakarta, Lanud Adisutjipto, Jl. Ringroad Timur, Karang Janbe, Banguntapan, Kec. Banguntapan, Bantul, Daerah Istimewa Yogyakarta 55198", "amenity": "hospital", "name": "RSPAU dr. S. Hardjolukito", "operator:type": "government", "phone": "(0274) 444715", "website": "http://www.rspauhardjolukito.com/", "@geometry": "center" }, "geometry": { "type": "Point", "coordinates": [ 110.4115033, -7.7974899 ] } },
{ "type": "Feature", "id": "way/787848227", "properties": { "@id": "way/787848227", "addr:city": "Wates, Kulon Progo, Daerah Istimewa Yogyakarta", "addr:housenumber": "5", "addr:postcode": "55651", "addr:street": "Jalan Tentara Pelajar", "amenity": "hospital", "healthcare": "hospital", "name": "RSUD Wates", "opening_hours": "24 jam", "phone": "+62 274 773169", "website": "https://rsud.kulonprogokab.go.id/", "@geometry": "center" }, "geometry": { "type": "Point", "coordinates": [ 110.1467142, -7.8603316 ] } },
{ "type": "Feature", "id": "way/886227367", "properties": { "@id": "way/886227367", "amenity": "hospital", "healthcare": "hospital", "name": "Puskesmas Kokap II", "operator": "Puskesmas Kokap II", "phone": "0811-2641-555", "@geometry": "center" }, "geometry": { "type": "Point", "coordinates": [ 110.1147986, -7.7987915 ] } },
{ "type": "Feature", "id": "way/1066702261", "properties": { "@id": "way/1066702261", "addr:full": "jln jogja-solo", "amenity": "hospital", "capacity:persons": "250-500", "healthcare": "hospital", "name": "RSIY PDHI", "opening_hours": "24 jam", "operator:type": "private", "phone": "(0274) 498000", "source": "survey", "@geometry": "center" }, "geometry": { "type": "Point", "coordinates": [ 110.4584845, -7.7757097 ] } },
{ "type": "Feature", "id": "way/1088969681", "properties": { "@id": "way/1088969681", "amenity": "hospital", "name": "Puskesmas Sentolo I", "phone": "(0274) 6472102", "@geometry": "center" }, "geometry": { "type": "Point", "coordinates": [ 110.2191682, -7.8331519 ] } },
{ "type": "Feature", "id": "way/1134408330", "properties": { "@id": "way/1134408330", "amenity": "hospital", "healthcare": "hospital", "name": "Rumah Sakit Condong Catur", "opening_hours": "24 jam", "phone": "(0274) 887494", "@geometry": "center" }, "geometry": { "type": "Point", "coordinates": [ 110.4058082, -7.7542708 ] } },
{ "type": "Feature", "id": "way/1134739784", "properties": { "@id": "way/1134739784", "amenity": "hospital", "healthcare": "hospital", "name": "Rumah Sakit Permata Husada", "opening_hours": "24 jam", "phone": "(0274) 441313", "@geometry": "center" }, "geometry": { "type": "Point", "coordinates": [ 110.4082649, -7.8657592 ] } },
{ "type": "Feature", "id": "way/1138796873", "properties": { "@id": "way/1138796873", "amenity": "hospital", "healthcare": "hospital", "name": "RSU Mitra Paramedika", "opening_hours": "24 jam", "phone": "(0274) 4461098", "@geometry": "center" }, "geometry": { "type": "Point", "coordinates": [ 110.4481859, -7.7140698 ] } },
{ "type": "Feature", "id": "node/1836618291", "properties": { "@id": "node/1836618291", "amenity": "hospital", "emergency": "yes", "name": "Puskesmas Piyungan", "opening_hours": "24 jam", "phone": "(0274) 4353218" }, "geometry": { "type": "Point", "coordinates": [ 110.4487055, -7.8285417 ] } },
{ "type": "Feature", "id": "node/2631261031", "properties": { "@id": "node/2631261031", "addr:city": "Yogyakarta", "addr:housenumber": "705", "addr:postcode": "55231", "addr:street": "Jalan Tentara Rakyat Mataram", "amenity": "hospital", "emergency": "no", "healthcare": "hospital", "name": "Klinik Adhiwarga PKBI DIY", "phone": "+62 274 586767", "source": "http://www.pkbi-diy.info", "website": "http://www.pkbi-diy.info" }, "geometry": { "type": "Point", "coordinates": [ 110.3570675, -7.7851411 ] } },
{ "type": "Feature", "id": "node/2651041094", "properties": { "@id": "node/2651041094", "amenity": "hospital", "name": "Puskesmas Jetis", "phone": "(0274) 554801" }, "geometry": { "type": "Point", "coordinates": [ 110.3491518, -7.9279993 ] } },
{ "type": "Feature", "id": "node/2651174542", "properties": { "@id": "node/2651174542", "amenity": "hospital", "name": "Rahma Husada", "opening_hours": "24 jam", "phone": "(0274) 6460091" }, "geometry": { "type": "Point", "coordinates": [ 110.3460526, -7.9318813 ] } },
{ "type": "Feature", "id": "node/3377375693", "properties": { "@id": "node/3377375693", "amenity": "hospital", "name": "Puskesmas Girimulyo 2", "phone": "(0274) 2822493" }, "geometry": { "type": "Point", "coordinates": [ 110.1459484, -7.7442477 ] } },
{ "type": "Feature", "id": "node/3428139821", "properties": { "@id": "node/3428139821", "amenity": "hospital", "name": "Puskesmas Galur II", "opening_hours": "24 jam", "phone": "(0274) 7102539" }, "geometry": { "type": "Point", "coordinates": [ 110.2245003, -7.9471928 ] } },
{ "type": "Feature", "id": "node/3724392322", "properties": { "@id": "node/3724392322", "amenity": "hospital", "name": "RS Rajawali Citra", "opening_hours": "24 jam", "phone": "0851-0048-2003" }, "geometry": { "type": "Point", "coordinates": [ 110.4102422, -7.8483302 ] } },
{ "type": "Feature", "id": "node/4114148391", "properties": { "@id": "node/4114148391", "addr:street": "Jalan Palagan Tentara Pelajar", "amenity": "hospital", "healthcare": "hospital", "healthcare:speciality": "general", "name": "apotek kimia farma" }, "geometry": { "type": "Point", "coordinates": [ 110.373712, -7.7444637 ] } },
{ "type": "Feature", "id": "node/4590296608", "properties": { "@id": "node/4590296608", "amenity": "hospital", "name": "condong catur apotik" }, "geometry": { "type": "Point", "coordinates": [ 110.4100586, -7.7601905 ] } },
{ "type": "Feature", "id": "node/5024644440", "properties": { "@id": "node/5024644440", "amenity": "hospital", "name": "Puskesmas Giripurwo" }, "geometry": { "type": "Point", "coordinates": [ 110.4020871, -8.0322154 ] } },
{ "type": "Feature", "id": "node/5251324939", "properties": { "@id": "node/5251324939", "amenity": "hospital", "healthcare": "hospital", "healthcare:speciality": "general", "name": "Apotek Jongkang" }, "geometry": { "type": "Point", "coordinates": [ 110.3722805, -7.7482207 ] } },
{ "type": "Feature", "id": "node/5863078025", "properties": { "@id": "node/5863078025", "access:roof": "yes", "addr:full": "Jalan Tino Sidin No.390, Kadipiro, Baru, Kdipiro, Ngestiharjo, Kasihan, Bantul, Daerah Istimewa Yogyakarta 55184", "amenity": "hospital", "building": "hospital", "building:condition": "good", "building:floor": "ceramics", "building:levels": "3", "building:material": "concrete", "building:roof": "concrete", "building:structure": "confined_masonry", "capacity:persons": "100-250", "name": "RS Khusus Ibu dan Anak Kahyangan", "opening_hours": "24 jam", "operator:type": "private", "phone": "(0274) 618953", "source": "survey" }, "geometry": { "type": "Point", "coordinates": [ 110.3449581, -7.7982432 ] } },
{ "type": "Feature", "id": "node/7331641864", "properties": { "@id": "node/7331641864", "addr:city": "yogyakarta", "addr:full": "Jalan Laksda Adisucipto No.32-34, Demangan, Kec. Gondokusuman, Kota Yogyakarta, Daerah Istimewa Yogyakarta 55221", "amenity": "hospital", "healthcare": "hospital", "name": "Rumah Sakit Siloam Yogyakarta", "opening_hours": "24 jam", "operator:type": "private", "phone": "(0274) 4600900", "source": "survey", "website": "https://www.siloamhospitals.com/", "wikidata": "Q19731706", "wikipedia": "id:Rumah Sakit Siloam" }, "geometry": { "type": "Point", "coordinates": [ 110.3908476, -7.7833722 ] } },
{ "type": "Feature", "id": "node/8385985634", "properties": { "@id": "node/8385985634", "amenity": "hospital", "healthcare": "hospital", "name": "RS Nurrohmah", "opening_hours": "24 jam", "phone": "(0274) 394574" }, "geometry": { "type": "Point", "coordinates": [ 110.5614765, -7.9224175 ] } },
{ "type": "Feature", "id": "node/9233361241", "properties": { "@id": "node/9233361241", "amenity": "hospital", "healthcare": "hospital", "name": "Health Architecture Center" }, "geometry": { "type": "Point", "coordinates": [ 110.3320585, -7.7677372 ] } },
{ "type": "Feature", "id": "node/9751906945", "properties": { "@id": "node/9751906945", "amenity": "hospital", "name": "RSU Pelita Husada", "opening_hours": "24 jam", "phone": "(0274) 393444" }, "geometry": { "type": "Point", "coordinates": [ 110.6320452, -7.9891432 ] } },
{ "type": "Feature", "id": "node/9837629180", "properties": { "@id": "node/9837629180", "amenity": "hospital", "healthcare": "hospital", "name": "ICU RSUP Dr. Sardjito" }, "geometry": { "type": "Point", "coordinates": [ 110.3723069, -7.769233 ] } },
{ "type": "Feature", "id": "node/10705747215", "properties": { "@id": "node/10705747215", "amenity": "hospital", "healthcare": "hospital", "name": "Rumah Sakit Universitas Islam Indonesia", "opening_hours": "24 jam", "phone": "(0274) 2812999" }, "geometry": { "type": "Point", "coordinates": [ 110.295898, -7.9091703 ] } },
{ "type": "Feature", "id": "node/10720341447", "properties": { "@id": "node/10720341447", "addr:city": "Yogyakarta", "addr:postcode": "55184", "addr:street": "Gg. Nakula, Kalirandu, Bangunjiwo, Kec. Kasihan, Kabupaten Bantul,", "amenity": "hospital", "emergency": "yes", "healthcare": "hospital", "healthcare:speciality": "herbalism;body;aromatherapy;family_medicine;community", "name": "RSH IN CARE (Rumah Sehat Holistik) - Bekam Jogja", "operator": "HIINCARE", "operator:type": "public", "phone": "+6281211595471", "website": "s.id/hiincare" }, "geometry": { "type": "Point", "coordinates": [ 110.3097744, -7.8387586 ] } },
{ "type": "Feature", "properties": { "id": "(0274) 868437", "@id": null, "access:roof": null, "addr:city": null, "addr:full": null, "addr:housename": null, "addr:housenumber": null, "addr:place": null, "addr:postcode": null, "addr:street": null, "alt_name": null, "amenity": null, "building": null, "building:colour": null, "building:condition": null, "building:floor": null, "building:levels": null, "building:levels:underground": null, "building:material": null, "building:roof": null, "building:structure": null, "building:use": null, "building:walls": null, "capacity:persons": null, "contact:facebook": null, "contact:instagram": null, "contact:youtube": null, "description": null, "email": null, "emergency": null, "fax": null, "healthcare": null, "healthcare:speciality": null, "height": null, "internet_access": null, "internet_access:fee": null, "internet_access:ssid": null, "level": null, "max_level": null, "name": null, "name:en": null, "opening_hours": null, "operator": null, "operator:type": null, "phone": null, "roof": null, "source": null, "structure": null, "takeaway": null, "toilets:wheelchair": null, "tourism": null, "type": null, "use": null, "wall": null, "website": null, "wheelchair": null, "wikidata": null, "wikipedia": null, "@geometry": null }, "geometry": null },
{ "type": "Feature", "properties": { "id": "NULL ", "@id": null, "access:roof": null, "addr:city": null, "addr:full": null, "addr:housename": null, "addr:housenumber": null, "addr:place": null, "addr:postcode": null, "addr:street": null, "alt_name": null, "amenity": null, "building": null, "building:colour": null, "building:condition": null, "building:floor": null, "building:levels": null, "building:levels:underground": null, "building:material": null, "building:roof": null, "building:structure": null, "building:use": null, "building:walls": null, "capacity:persons": null, "contact:facebook": null, "contact:instagram": null, "contact:youtube": null, "description": null, "email": null, "emergency": null, "fax": null, "healthcare": null, "healthcare:speciality": null, "height": null, "internet_access": null, "internet_access:fee": null, "internet_access:ssid": null, "level": null, "max_level": null, "name": "RSU Griya Mahardika Yogyakarta", "name:en": null, "opening_hours": "24 jam", "operator": null, "operator:type": null, "phone": "(0274) 445020", "roof": null, "source": null, "structure": null, "takeaway": null, "toilets:wheelchair": null, "tourism": null, "type": null, "use": null, "wall": null, "website": null, "wheelchair": null, "wikidata": null, "wikipedia": null, "@geometry": null }, "geometry": { "type": "Point", "coordinates": [ 110.36582110669498, -7.838572197129941 ] } },
{ "type": "Feature", "properties": { "id": null, "@id": null, "access:roof": null, "addr:city": null, "addr:full": null, "addr:housename": null, "addr:housenumber": null, "addr:place": null, "addr:postcode": null, "addr:street": null, "alt_name": null, "amenity": null, "building": null, "building:colour": null, "building:condition": null, "building:floor": null, "building:levels": null, "building:levels:underground": null, "building:material": null, "building:roof": null, "building:structure": null, "building:use": null, "building:walls": null, "capacity:persons": null, "contact:facebook": null, "contact:instagram": null, "contact:youtube": null, "description": null, "email": null, "emergency": null, "fax": null, "healthcare": null, "healthcare:speciality": null, "height": null, "internet_access": null, "internet_access:fee": null, "internet_access:ssid": null, "level": null, "max_level": null, "name": "Klinik Pratama SWA", "name:en": null, "opening_hours": "24 jam", "operator": null, "operator:type": "", "phone": "0821-3545-6784", "roof": null, "source": null, "structure": null, "takeaway": null, "toilets:wheelchair": null, "tourism": null, "type": null, "use": null, "wall": null, "website": null, "wheelchair": null, "wikidata": null, "wikipedia": null, "@geometry": null }, "geometry": { "type": "Point", "coordinates": [ 110.361871426044786, -7.669775977012592 ] } },
{ "type": "Feature", "properties": { "id": null, "@id": null, "access:roof": null, "addr:city": null, "addr:full": null, "addr:housename": null, "addr:housenumber": null, "addr:place": null, "addr:postcode": null, "addr:street": null, "alt_name": null, "amenity": null, "building": null, "building:colour": null, "building:condition": null, "building:floor": null, "building:levels": null, "building:levels:underground": null, "building:material": null, "building:roof": null, "building:structure": null, "building:use": null, "building:walls": null, "capacity:persons": null, "contact:facebook": null, "contact:instagram": null, "contact:youtube": null, "description": null, "email": null, "emergency": null, "fax": null, "healthcare": null, "healthcare:speciality": null, "height": null, "internet_access": null, "internet_access:fee": null, "internet_access:ssid": null, "level": null, "max_level": null, "name": "Klinik Widuri", "name:en": null, "opening_hours": "24 jam", "operator": null, "operator:type": null, "phone": "(0274) 867363", "roof": null, "source": null, "structure": null, "takeaway": null, "toilets:wheelchair": null, "tourism": null, "type": null, "use": null, "wall": null, "website": null, "wheelchair": null, "wikidata": null, "wikipedia": null, "@geometry": null }, "geometry": { "type": "Point", "coordinates": [ 110.339330334461849, -7.690289360666125 ] } }
]
}
